[{"OBJECT_NAME":"NUSAT-49 (KLARA DAN VON NEUMANN)","OBJECT_ID":"2024-149AJ","EPOCH":"2026-03-09T19:09:16.004160","MEAN_MOTION":15.30828857,"ECCENTRICITY":0.00011321,"INCLINATION":97.3807,"RA_OF_ASC_NODE":150.738,"ARG_OF_PERICENTER":286.7761,"MEAN_ANOMALY":73.3356,"EPHEMERIS_TYPE":0,"CLASSIFICATION_TYPE":"U","NORAD_CAT_ID":60500,"ELEMENT_SET_NO":999,"REV_AT_EPOCH":8693,"BSTAR":0.00043568345,"MEAN_MOTION_DOT":0.00012912,"MEAN_MOTION_DDOT":0},{"OBJECT_NAME":"STARLINK-34523","OBJECT_ID":"2025-133D","EPOCH":"2026-03-09T09:43:49.352448","MEAN_MOTION":15.30216493,"ECCENTRICITY":0.00013444,"INCLINATION":53.1582,"RA_OF_ASC_NODE":118.2092,"ARG_OF_PERICENTER":89.5276,"MEAN_ANOMALY":270.5878,"EPHEMERIS_TYPE":0,"CLASSIFICATION_TYPE":"U","NORAD_CAT_ID":64475,"ELEMENT_SET_NO":999,"REV_AT_EPOCH":4112,"BSTAR":0.0010181901,"MEAN_MOTION_DOT":0.00029934,"MEAN_MOTION_DDOT":0}]
