NUSAT-49 (KLARA DAN VO*)
1 60500U 24149AJ  26068.79810190  .00012912  00000+0  43568-3 0  9991
2 60500  97.3807 150.7380 0001132 286.7761  73.3356 15.30828857 86935
STARLINK-34523          
1 64475U 25133D   26068.40543232  .00029934  00000+0  10182-2 0  9995
2 64475  53.1582 118.2092 0001344  89.5276 270.5878 15.30216493 41123
